CZ-2C R/B               
1 54039U 22132E   26048.56193381  .00036935  00000+0  45237-3 0  9996
2 54039  97.2956  51.2981 0019607 157.2132 202.9999 15.60047566187232
GSLV R/B                
1 54149U 22138AN  26048.72987521  .00003152  00000+0  27325-3 0  9992
2 54149  87.3873 173.0404 0020065 219.4341 140.5431 14.96615875180949
XRISM                   
1 57800U 23137A   26048.36537527  .00005671  00000+0  32328-3 0  9993
2 57800  31.0028  55.0911 0008246 197.0098 163.0265 15.11241447134710
ACS3                    
1 59588U 24077B   26048.83420043  .00018092  00000+0  14852-1 0  9999
2 59588  97.2179 354.4099 0048221 134.7289 225.7815 13.88745291 91443
SZ-21 MODULE            
1 66515U 25246C   26048.81600336  .00031109  00000+0  28608-3 0  9999
2 66515  41.4766 325.5514 0001949 296.4843  63.5798 15.66996857 14956
